[{"OBJECT_NAME":"STARLINK-5291","OBJECT_ID":"2023-010E","EPOCH":"2026-03-09T23:37:28.451712","MEAN_MOTION":14.9834156,"ECCENTRICITY":0.00032267,"INCLINATION":70.0003,"RA_OF_ASC_NODE":43.5745,"ARG_OF_PERICENTER":257.1762,"MEAN_ANOMALY":102.9037,"EPHEMERIS_TYPE":0,"CLASSIFICATION_TYPE":"U","NORAD_CAT_ID":55273,"ELEMENT_SET_NO":999,"REV_AT_EPOCH":17283,"BSTAR":2.5217466e-5,"MEAN_MOTION_DOT":2.08e-6,"MEAN_MOTION_DDOT":0},{"OBJECT_NAME":"BRO-13","OBJECT_ID":"2024-043K","EPOCH":"2026-03-09T22:19:47.829216","MEAN_MOTION":14.96296765,"ECCENTRICITY":0.00083947,"INCLINATION":97.8333,"RA_OF_ASC_NODE":199.7446,"ARG_OF_PERICENTER":338.0901,"MEAN_ANOMALY":21.996,"EPHEMERIS_TYPE":0,"CLASSIFICATION_TYPE":"U","NORAD_CAT_ID":59107,"ELEMENT_SET_NO":999,"REV_AT_EPOCH":10977,"BSTAR":0.00013050562,"MEAN_MOTION_DOT":1.416e-5,"MEAN_MOTION_DDOT":0}]
